{"fetched_at":"2026-07-21T07:06:40.217Z","source":"https://celestrak.org/NORAD/elements/gp.php?NAME=ASTROCAST&FORMAT=JSON","constellation":"astrocast","records":[{"OBJECT_NAME":"ASTROCAST 0.1","OBJECT_ID":"2018-099AS","EPOCH":"2026-07-20T22:41:45.322080","CLASSIFICATION_TYPE":"U","MEAN_MOTION":15.51731258,"ECCENTRICITY":0.00053283,"INCLINATION":97.4363,"RA_OF_ASC_NODE":281.5507,"ARG_OF_PERICENTER":113.2413,"MEAN_ANOMALY":246.9401,"EPHEMERIS_TYPE":0,"NORAD_CAT_ID":43798,"ELEMENT_SET_NO":999,"REV_AT_EPOCH":41966,"BSTAR":0.00052233669,"MEAN_MOTION_DOT":0.00031118,"MEAN_MOTION_DDOT":0},{"OBJECT_NAME":"ASTROCAST-0402","OBJECT_ID":"2023-001DE","EPOCH":"2026-07-20T19:34:52.818240","CLASSIFICATION_TYPE":"U","MEAN_MOTION":15.29100455,"ECCENTRICITY":0.00066482,"INCLINATION":97.5575,"RA_OF_ASC_NODE":295.5301,"ARG_OF_PERICENTER":119.3554,"MEAN_ANOMALY":240.8351,"EPHEMERIS_TYPE":0,"NORAD_CAT_ID":55109,"ELEMENT_SET_NO":999,"REV_AT_EPOCH":14967,"BSTAR":0.00037221582,"MEAN_MOTION_DOT":0.00010447,"MEAN_MOTION_DDOT":0},{"OBJECT_NAME":"ASTROCAST-0401","OBJECT_ID":"2023-001DF","EPOCH":"2026-07-20T18:25:19.524576","CLASSIFICATION_TYPE":"U","MEAN_MOTION":15.28666952,"ECCENTRICITY":0.00094278,"INCLINATION":97.5558,"RA_OF_ASC_NODE":295.2817,"ARG_OF_PERICENTER":91.8246,"MEAN_ANOMALY":268.4073,"EPHEMERIS_TYPE":0,"NORAD_CAT_ID":55110,"ELEMENT_SET_NO":999,"REV_AT_EPOCH":19633,"BSTAR":0.00042057552,"MEAN_MOTION_DOT":0.00011668,"MEAN_MOTION_DDOT":0},{"OBJECT_NAME":"ASTROCAST-0403","OBJECT_ID":"2023-001DG","EPOCH":"2026-07-20T20:03:19.060128","CLASSIFICATION_TYPE":"U","MEAN_MOTION":15.32517448,"ECCENTRICITY":0.00052184,"INCLINATION":97.5613,"RA_OF_ASC_NODE":296.7087,"ARG_OF_PERICENTER":192.6138,"MEAN_ANOMALY":167.4974,"EPHEMERIS_TYPE":0,"NORAD_CAT_ID":55111,"ELEMENT_SET_NO":999,"REV_AT_EPOCH":14971,"BSTAR":0.00056644149,"MEAN_MOTION_DOT":0.00017733,"MEAN_MOTION_DDOT":0},{"OBJECT_NAME":"ASTROCAST-0404","OBJECT_ID":"2023-001DH","EPOCH":"2026-07-20T18:50:08.443680","CLASSIFICATION_TYPE":"U","MEAN_MOTION":15.28874248,"ECCENTRICITY":0.0005532,"INCLINATION":97.5662,"RA_OF_ASC_NODE":296.4362,"ARG_OF_PERICENTER":219.5046,"MEAN_ANOMALY":140.5791,"EPHEMERIS_TYPE":0,"NORAD_CAT_ID":55112,"ELEMENT_SET_NO":999,"REV_AT_EPOCH":14966,"BSTAR":0.00017062659,"MEAN_MOTION_DOT":0.00004709,"MEAN_MOTION_DDOT":0}]}
