ASTROCAST 0.1           
1 43798U 18099AS  26201.94566345  .00031118  00000+0  52234-3 0  9993
2 43798  97.4363 281.5507 0005328 113.2413 246.9401 15.51731258419666
ASTROCAST-0402          
1 55109U 23001DE  26201.81588910  .00010447  00000+0  37222-3 0  9991
2 55109  97.5575 295.5301 0006648 119.3554 240.8351 15.29100455149679
ASTROCAST-0401          
1 55110U 23001DF  26201.76758709  .00011668  00000+0  42058-3 0  9991
2 55110  97.5558 295.2817 0009427  91.8246 268.4073 15.28666952196331
ASTROCAST-0403          
1 55111U 23001DG  26201.83563727  .00017733  00000+0  56644-3 0  9999
2 55111  97.5613 296.7087 0005218 192.6138 167.4974 15.32517448149711
ASTROCAST-0404          
1 55112U 23001DH  26201.78481995  .00004709  00000+0  17063-3 0  9991
2 55112  97.5662 296.4362 0005532 219.5046 140.5791 15.28874248149667
